FALCON
1 30776U 07006E   07312.69098623  .00000246  00000-0  21084-4 0  1793
2 30776 035.4332 056.6077 0001956 284.7328 075.3171 15.02796599 36805
MAST
1 31126U 07012K   07311.25271908  .00000052  00000-0  22927-4 0  1770
2 31126 098.0694 019.2640 0093948 303.0836 056.1371 14.53374341 29637
