Satellite: FALCON
Catalog number: 30776
Epoch time:      07312.69098623
Element set:     179
Inclination:      035.4332 deg
RA of node:       056.6077 deg
Eccentricity:    0.0001956
Arg of perigee:   284.7328 deg
Mean anomaly:     075.3171 deg
Mean motion:   15.02796599 rev/day
Decay rate:       2.46e-06 rev/day^2
Epoch rev:            3680
Checksum:              317

Satellite: MAST
Catalog number: 31126
Epoch time:      07311.25271908
Element set:     177
Inclination:      098.0694 deg
RA of node:       019.2640 deg
Eccentricity:    0.0093948
Arg of perigee:   303.0836 deg
Mean anomaly:     056.1371 deg
Mean motion:   14.53374341 rev/day
Decay rate:        5.2e-07 rev/day^2
Epoch rev:            2963
Checksum:              283

